{
  "type": "FeatureCollection",
  "features": [
    {
      "type": "Feature",
      "properties": {
        "norad_id": 38513,
        "name": "FENGYUN 1C DEB",
        "group": "fengyun-1c-debris",
        "lat": 78.02457568701446,
        "lon": 99.28756203496872,
        "alt_km": 813.4708685657415,
        "timestamp": "2025-12-04T07:39:36.423933+00:00",
        "meta_object_name": "FENGYUN 1C DEB",
        "meta_object_id": "1999-025ESY",
        "meta_epoch": "2025-11-05T11:10:23.483712",
        "meta_mean_motion": 14.74191137,
        "meta_eccentricity": 0.02562234,
        "meta_inclination": 97.6286,
        "meta_ra_of_asc_node": 212.8757,
        "meta_arg_of_pericenter": 7.2303,
        "meta_mean_anomaly": 353.249,
        "meta_ephemeris_type": 0,
        "meta_classification_type": "U",
        "meta_norad_cat_id": 38513,
        "meta_element_set_no": 999,
        "meta_rev_at_epoch": 63108,
        "meta_bstar": 0.0018759347,
        "meta_mean_motion_dot": 0.0002109,
        "meta_mean_motion_ddot": 0,
        "tle_line1": "1 38513U 99025ESY 25309.46554958  .00021090  00000+0  18759-2 0  9993",
        "tle_line2": "2 38513  97.6286 212.8757 0256223   7.2303 353.2490 14.74191137631089"
      },
      "geometry": {
        "type": "Point",
        "coordinates": [
          99.28756203496872,
          78.02457568701446
        ]
      }
    },
    {
      "type": "Feature",
      "properties": {
        "norad_id": 38514,
        "name": "FENGYUN 1C DEB",
        "group": "fengyun-1c-debris",
        "lat": -68.4132994312914,
        "lon": 29.668820852910027,
        "alt_km": 906.2124722215176,
        "timestamp": "2025-12-04T07:39:36.423942+00:00",
        "meta_object_name": "FENGYUN 1C DEB",
        "meta_object_id": "1999-025ESZ",
        "meta_epoch": "2025-12-02T08:28:32.073600",
        "meta_mean_motion": 14.1520314,
        "meta_eccentricity": 0.02727201,
        "meta_inclination": 98.0552,
        "meta_ra_of_asc_node": 6.9176,
        "meta_arg_of_pericenter": 44.3542,
        "meta_mean_anomaly": 317.9133,
        "meta_ephemeris_type": 0,
        "meta_classification_type": "U",
        "meta_norad_cat_id": 38514,
        "meta_element_set_no": 999,
        "meta_rev_at_epoch": 87849,
        "meta_bstar": 0.0058072716,
        "meta_mean_motion_dot": 0.00016169,
        "meta_mean_motion_ddot": 0,
        "tle_line1": "1 38514U 99025ESZ 25336.35314900  .00016169  00000+0  58073-2 0  9997",
        "tle_line2": "2 38514  98.0552   6.9176 0272720  44.3542 317.9133 14.15203140878497"
      },
      "geometry": {
        "type": "Point",
        "coordinates": [
          29.668820852910027,
          -68.4132994312914
        ]
      }
    },
    {
      "type": "Feature",
      "properties": {
        "norad_id": 38516,
        "name": "FENGYUN 1C DEB",
        "group": "fengyun-1c-debris",
        "lat": 62.943401262834946,
        "lon": -54.47148355006549,
        "alt_km": 765.544396338435,
        "timestamp": "2025-12-04T07:39:36.423951+00:00",
        "meta_object_name": "FENGYUN 1C DEB",
        "meta_object_id": "1999-025ETB",
        "meta_epoch": "2025-12-03T04:33:56.311776",
        "meta_mean_motion": 14.34038032,
        "meta_eccentricity": 0.01111458,
        "meta_inclination": 98.4411,
        "meta_ra_of_asc_node": 321.328,
        "meta_arg_of_pericenter": 153.504,
        "meta_mean_anomaly": 207.1887,
        "meta_ephemeris_type": 0,
        "meta_classification_type": "U",
        "meta_norad_cat_id": 38516,
        "meta_element_set_no": 999,
        "meta_rev_at_epoch": 84736,
        "meta_bstar": 0.00014402251,
        "meta_mean_motion_dot": 3.87e-06,
        "meta_mean_motion_ddot": 0,
        "tle_line1": "1 38516U 99025ETB 25337.19023509  .00000387  00000+0  14402-3 0  9998",
        "tle_line2": "2 38516  98.4411 321.3280 0111145 153.5040 207.1887 14.34038032847361"
      },
      "geometry": {
        "type": "Point",
        "coordinates": [
          -54.47148355006549,
          62.943401262834946
        ]
      }
    },
    {
      "type": "Feature",
      "properties": {
        "norad_id": 38717,
        "name": "FENGYUN 1C DEB",
        "group": "fengyun-1c-debris",
        "lat": -8.42064714576261,
        "lon": -5.387333437338712,
        "alt_km": 792.9081449227397,
        "timestamp": "2025-12-04T07:39:36.423960+00:00",
        "meta_object_name": "FENGYUN 1C DEB",
        "meta_object_id": "1999-025ETJ",
        "meta_epoch": "2025-12-01T00:20:32.745696",
        "meta_mean_motion": 14.19799614,
        "meta_eccentricity": 0.00572573,
        "meta_inclination": 99.1602,
        "meta_ra_of_asc_node": 349.8258,
        "meta_arg_of_pericenter": 27.4617,
        "meta_mean_anomaly": 1.3685,
        "meta_ephemeris_type": 0,
        "meta_classification_type": "U",
        "meta_norad_cat_id": 38717,
        "meta_element_set_no": 999,
        "meta_rev_at_epoch": 58260,
        "meta_bstar": 0.0018132413,
        "meta_mean_motion_dot": 3.86e-05,
        "meta_mean_motion_ddot": 0,
        "tle_line1": "1 38717U 99025ETJ 25335.01426789  .00003860  00000+0  18132-2 0  9999",
        "tle_line2": "2 38717  99.1602 349.8258 0057257  27.4617   1.3685 14.19799614582602"
      },
      "geometry": {
        "type": "Point",
        "coordinates": [
          -5.387333437338712,
          -8.42064714576261
        ]
      }
    },
    {
      "type": "Feature",
      "properties": {
        "norad_id": 38722,
        "name": "FENGYUN 1C DEB",
        "group": "fengyun-1c-debris",
        "lat": -55.804100271688924,
        "lon": 89.62951865435178,
        "alt_km": 812.1308494835212,
        "timestamp": "2025-12-04T07:39:36.423969+00:00",
        "meta_object_name": "FENGYUN 1C DEB",
        "meta_object_id": "1999-025ETP",
        "meta_epoch": "2025-12-01T02:30:36.772128",
        "meta_mean_motion": 14.57829066,
        "meta_eccentricity": 0.01491283,
        "meta_inclination": 99.3543,
        "meta_ra_of_asc_node": 71.9781,
        "meta_arg_of_pericenter": 129.9808,
        "meta_mean_anomaly": 231.4593,
        "meta_ephemeris_type": 0,
        "meta_classification_type": "U",
        "meta_norad_cat_id": 38722,
        "meta_element_set_no": 999,
        "meta_rev_at_epoch": 70294,
        "meta_bstar": 0.003549588,
        "meta_mean_motion_dot": 0.00018924,
        "meta_mean_motion_ddot": 0,
        "tle_line1": "1 38722U 99025ETP 25335.10459227  .00018924  00000+0  35496-2 0  9997",
        "tle_line2": "2 38722  99.3543  71.9781 0149128 129.9808 231.4593 14.57829066702949"
      },
      "geometry": {
        "type": "Point",
        "coordinates": [
          89.62951865435178,
          -55.804100271688924
        ]
      }
    },
    {
      "type": "Feature",
      "properties": {
        "norad_id": 38724,
        "name": "FENGYUN 1C DEB",
        "group": "fengyun-1c-debris",
        "lat": 81.02377986672587,
        "lon": -115.6577631353458,
        "alt_km": 744.9172408261602,
        "timestamp": "2025-12-04T07:39:36.423981+00:00",
        "meta_object_name": "FENGYUN 1C DEB",
        "meta_object_id": "1999-025ETR",
        "meta_epoch": "2025-11-13T12:10:01.066656",
        "meta_mean_motion": 14.14277973,
        "meta_eccentricity": 0.012547,
        "meta_inclination": 98.7406,
        "meta_ra_of_asc_node": 327.0705,
        "meta_arg_of_pericenter": 154.7752,
        "meta_mean_anomaly": 205.962,
        "meta_ephemeris_type": 0,
        "meta_classification_type": "U",
        "meta_norad_cat_id": 38724,
        "meta_element_set_no": 999,
        "meta_rev_at_epoch": 56211,
        "meta_bstar": 0.0084973,
        "meta_mean_motion_dot": 0.00017498,
        "meta_mean_motion_ddot": 0,
        "tle_line1": "1 38724U 99025ETR 25317.50695679  .00017498  00000+0  84973-2 0  9995",
        "tle_line2": "2 38724  98.7406 327.0705 0125470 154.7752 205.9620 14.14277973562118"
      },
      "geometry": {
        "type": "Point",
        "coordinates": [
          -115.6577631353458,
          81.02377986672587
        ]
      }
    },
    {
      "type": "Feature",
      "properties": {
        "norad_id": 38725,
        "name": "FENGYUN 1C DEB",
        "group": "fengyun-1c-debris",
        "lat": -76.82569623422181,
        "lon": 145.06050895605708,
        "alt_km": 733.1230120269265,
        "timestamp": "2025-12-04T07:39:36.423990+00:00",
        "meta_object_name": "FENGYUN 1C DEB",
        "meta_object_id": "1999-025ETS",
        "meta_epoch": "2025-11-29T14:49:40.883520",
        "meta_mean_motion": 14.42458276,
        "meta_eccentricity": 0.00341154,
        "meta_inclination": 98.8716,
        "meta_ra_of_asc_node": 98.3167,
        "meta_arg_of_pericenter": 295.1379,
        "meta_mean_anomaly": 64.6272,
        "meta_ephemeris_type": 0,
        "meta_classification_type": "U",
        "meta_norad_cat_id": 38725,
        "meta_element_set_no": 999,
        "meta_rev_at_epoch": 73163,
        "meta_bstar": 0.0025685437,
        "meta_mean_motion_dot": 8.527e-05,
        "meta_mean_motion_ddot": 0,
        "tle_line1": "1 38725U 99025ETS 25333.61783430  .00008527  00000+0  25685-2 0  9997",
        "tle_line2": "2 38725  98.8716  98.3167 0034115 295.1379  64.6272 14.42458276731630"
      },
      "geometry": {
        "type": "Point",
        "coordinates": [
          145.06050895605708,
          -76.82569623422181
        ]
      }
    }
  ]
}